[{"OBJECT_NAME":"STARLINK-11530 [DTC]","OBJECT_ID":"2025-006J","EPOCH":"2026-03-09T09:46:14.866464","MEAN_MOTION":15.70874722,"ECCENTRICITY":0.00025529,"INCLINATION":43.0004,"RA_OF_ASC_NODE":141.983,"ARG_OF_PERICENTER":286.247,"MEAN_ANOMALY":73.8117,"EPHEMERIS_TYPE":0,"CLASSIFICATION_TYPE":"U","NORAD_CAT_ID":62562,"ELEMENT_SET_NO":999,"REV_AT_EPOCH":6655,"BSTAR":0.0021840269,"MEAN_MOTION_DOT":0.0029023,"MEAN_MOTION_DDOT":0},{"OBJECT_NAME":"ATLAS CENTAUR R\/B","OBJECT_ID":"1981-050B","EPOCH":"2026-03-09T21:41:53.909088","MEAN_MOTION":8.78968384,"ECCENTRICITY":0.32572443,"INCLINATION":23.9372,"RA_OF_ASC_NODE":11.6522,"ARG_OF_PERICENTER":123.7324,"MEAN_ANOMALY":271.6876,"EPHEMERIS_TYPE":0,"CLASSIFICATION_TYPE":"U","NORAD_CAT_ID":12497,"ELEMENT_SET_NO":999,"REV_AT_EPOCH":16823,"BSTAR":0.0011109574,"MEAN_MOTION_DOT":0.00013474,"MEAN_MOTION_DDOT":0}]
